H1 CPF 01  gfz 2021 10 01 12  7742 tandemx   
H2 1003001  6202 36605    2021 10 01 12 59 42 2021 10 06 00 00 42   120 1 1  0 0 0
H9
10 0 59490  56142.000000  0   -4891321.215  -2989504.741  -3828916.961
10 0 59490  56262.000000  0   -4519615.274  -2543093.008  -4542664.578
10 0 59490  56382.000000  0   -4061191.836  -2059728.226  -5176867.037
10 0 59490  56502.000000  0   -3523537.368  -1549305.824  -5720515.826
10 0 59490  56622.000000  0   -2915666.851  -1022026.061  -6164200.873
10 0 59490  56742.000000  0   -2247966.505   -488191.158  -6500262.343
10 0 59490  56862.000000  0   -1532012.255     41993.318  -6722911.238
10 0 59490  56982.000000  0    -780368.865    558608.895  -6828317.286
10 0 59490  57102.000000  0      -6373.617   1052204.535  -6814667.591
10 0 59490  57222.000000  0     776094.200   1513964.826  -6682194.013
10 0 59490  57342.000000  0    1552855.564   1935863.128  -6433172.153
10 0 59490  57462.000000  0    2309683.717   2310799.509  -6071886.692
10 0 59490  57582.000000  0    3032560.552   2632719.628  -5604565.453
10 0 59490  57702.000000  0    3707932.918   2896712.887  -5039281.522
10 0 59490  57822.000000  0    4322967.042   3099089.561  -4385826.539
10 0 59490  57942.000000  0    4865796.769   3237434.823  -3655551.812
10 0 59490  58062.000000  0    5325758.549   3310637.180  -2861179.156
10 0 59490  58182.000000  0    5693608.227   3318892.096  -2016585.734
10 0 59490  58302.000000  0    5961716.060   3263679.212  -1136563.292
10 0 59490  58422.000000  0    6124232.156   3147712.088   -236557.102
10 0 59490  58542.000000  0    6177219.182   2974862.442    667610.175
10 0 59490  58662.000000  0    6118747.762   2750059.158   1560024.025
10 0 59490  58782.000000  0    5948951.467   2479167.383   2424966.370
10 0 59490  58902.000000  0    5670040.976   2168848.427   3247201.710
10 0 59490  59022.000000  0    5286274.802   1826403.775   4012253.491
10 0 59490  59142.000000  0    4803888.430   1459608.462   4706664.275
10 0 59490  59262.000000  0    4230985.029   1076537.735   5318232.854
10 0 59490  59382.000000  0    3577391.893    685391.376   5836229.000
10 0 59490  59502.000000  0    2854481.182    294319.434   6251578.269
10 0 59490  59622.000000  0    2074965.110    -88745.147   6557013.449
10 0 59490  59742.000000  0    1252668.889   -456245.238   6747196.254
10 0 59490  59862.000000  0     402282.416   -801147.500   6818806.626
10 0 59490  59982.000000  0    -460903.919  -1117076.084   6770596.146
10 0 59490  60102.000000  0   -1321273.748  -1398430.191   6603407.713
10 0 59490  60222.000000  0   -2163166.133  -1640483.454   6320160.452
10 0 59490  60342.000000  0   -2971158.393  -1839462.582   5925801.785
10 0 59490  60462.000000  0   -3730349.658  -1992606.491   5427229.293
10 0 59490  60582.000000  0   -4426641.098  -2098205.049   4833176.134
10 0 59490  60702.000000  0   -5047003.785  -2155615.155   4154062.674
10 0 59490  60822.000000  0   -5579729.616  -2165253.205   3401816.695
10 0 59490  60942.000000  0   -6014659.972  -2128564.459   2589666.135
10 0 59490  61062.000000  0   -6343388.615  -2047971.288   1731907.044
10 0 59490  61182.000000  0   -6559433.989  -1926800.415    843647.283
10 0 59490  61302.000000  0   -6658371.704  -1769189.626    -59467.351
10 0 59490  61422.000000  0   -6637927.285  -1579976.944   -961537.103
10 0 59490  61542.000000  0   -6498024.681  -1364575.306  -1846697.733
10 0 59490  61662.000000  0   -6240790.075  -1128836.476  -2699407.358
10 0 59490  61782.000000  0   -5870511.877   -878907.958  -3504724.913
10 0 59490  61902.000000  0   -5393558.438   -621085.604  -4248574.747
10 0 59490  62022.000000  0   -4818256.162   -361665.688  -4917991.697
10 0 59490  62142.000000  0   -4154731.510   -106800.890  -5501342.233
10 0 59490  62262.000000  0   -3414721.075    137636.595  -5988518.554
10 0 59490  62382.000000  0   -2611355.203    366182.359  -6371101.936
10 0 59490  62502.000000  0   -1758921.312    573894.391  -6642496.014
10 0 59490  62622.000000  0    -872609.280    756453.166  -6798029.949
10 0 59490  62742.000000  0      31755.792    910247.064  -6835029.143
10 0 59490  62862.000000  0     937988.545   1032440.485  -6752855.454
10 0 59490  62982.000000  0    1829825.648   1121024.202  -6552919.819
10 0 59490  63102.000000  0    2691212.132   1174848.362  -6238661.066
10 0 59490  63222.000000  0    3506585.708   1193636.561  -5815492.558
10 0 59490  63342.000000  0    4261154.267   1177980.632  -5290717.551
10 0 59490  63462.000000  0    4941164.831   1129316.624  -4673415.376
10 0 59490  63582.000000  0    5534159.604   1049882.478  -3974295.538
10 0 59490  63702.000000  0    6029212.099    942657.400  -3205521.418
10 0 59490  63822.000000  0    6417138.996    811283.949  -2380506.462
10 0 59490  63942.000000  0    6690683.660    659974.805  -1513684.376
10 0 59490  64062.000000  0    6844664.622    493405.371   -620255.635
10 0 59490  64182.000000  0    6876083.480    316594.960    284083.130
10 0 59490  64302.000000  0    6784190.954    134780.348   1183420.838
10 0 59490  64422.000000  0    6570508.756    -46717.011   2061920.340
10 0 59490  64542.000000  0    6238804.721   -222625.180   2904107.128
10 0 59490  64662.000000  0    5795021.757   -387854.730   3695150.227
10 0 59490  64782.000000  0    5247163.428   -537625.982   4421128.495
10 0 59490  64902.000000  0    4605141.747   -667588.049   5069279.232
10 0 59490  65022.000000  0    3880586.524   -773927.447   5628223.334
10 0 59490  65142.000000  0    3086624.503   -853461.679   6088161.394
10 0 59490  65262.000000  0    2237633.766   -903717.871   6441040.737
10 0 59490  65382.000000  0    1348978.269   -922994.396   6680690.821
10 0 59490  65502.000000  0     436725.503   -910404.552   6802926.358
10 0 59490  65622.000000  0    -482646.053   -865900.845   6805614.724
10 0 59490  65742.000000  0   -1392543.910   -790280.423   6688709.691
10 0 59490  65862.000000  0   -2276559.627   -685170.828   6454251.763
10 0 59490  65982.000000  0   -3118763.175   -552996.413   6106334.991
10 0 59490  66102.000000  0   -3903990.845   -396925.938   5651041.301
10 0 59490  66222.000000  0   -4618122.525   -220802.610   5096340.789
10 0 59490  66342.000000  0   -5248342.311    -29057.402   4451957.747
10 0 59490  66462.000000  0   -5783376.742    173392.515   3729204.385
10 0 59490  66582.000000  0   -6213705.315    381258.616   2940784.780
10 0 59490  66702.000000  0   -6531740.060    589006.745   2100572.565
10 0 59490  66822.000000  0   -6731968.935    790990.754   1223363.933
10 0 59490  66942.000000  0   -6811059.155    981590.167    324611.265
10 0 59490  67062.000000  0   -6767916.729   1155349.121   -579857.654
10 0 59490  67182.000000  0   -6603699.615   1307112.624  -1474127.813
10 0 59490  67302.000000  0   -6321785.706   1432156.075  -2342484.612
10 0 59490  67422.000000  0   -5927698.529   1526306.809  -3169697.104
10 0 59490  67542.000000  0   -5428988.263   1586052.476  -3941291.124
10 0 59490  67662.000000  0   -4835074.052   1608633.590  -4643802.749
10 0 59490  67782.000000  0   -4157053.597   1592119.431  -5265009.320
10 0 59490  67902.000000  0   -3407484.859   1535465.326  -5794134.072
10 0 59490  68022.000000  0   -2600146.278   1438550.473  -6222022.965
10 0 59490  68142.000000  0   -1749779.278   1302195.657  -6541292.358
10 0 59490  68262.000000  0    -871817.476   1128161.642  -6746444.404
10 0 59490  68382.000000  0      17889.904    919127.248  -6833950.619
10 0 59490  68502.000000  0     903356.692    678649.060  -6802305.550
10 0 59490  68622.000000  0    1768739.996    411102.173  -6652052.417
10 0 59490  68742.000000  0    2598618.100    121602.448  -6385774.431
10 0 59490  68862.000000  0    3378259.867   -184087.603  -6008055.455
10 0 59490  68982.000000  0    4093883.407   -499669.125  -5525408.369
10 0 59490  69102.000000  0    4732898.803   -818431.166  -4946173.808
10 0 59490  69222.000000  0    5284134.813  -1133387.838  -4280388.558
10 0 59490  69342.000000  0    5738042.268  -1437425.435  -3539621.848
10 0 59490  69462.000000  0    6086869.912  -1723456.750  -2736782.765
10 0 59490  69582.000000  0    6324808.742  -1984579.658  -1885900.602
10 0 59490  69702.000000  0    6448100.416  -2214236.105  -1001881.097
10 0 59490  69822.000000  0    6455106.560  -2406367.042   -100243.419
10 0 59490  69942.000000  0    6346336.759  -2555560.080    803157.565
10 0 59490  70062.000000  0    6124433.541  -2657185.128   1692418.117
10 0 59490  70182.000000  0    5794113.554  -2707514.909   2551875.180
10 0 59490  70302.000000  0    5362066.751  -2703827.164   3366390.906
10 0 59490  70422.000000  0    4836815.556  -2644484.855   4121626.659
10 0 59490  70542.000000  0    4228539.967  -2528993.036   4804298.305
10 0 59490  70662.000000  0    3548873.700  -2358032.793   5402412.285
10 0 59490  70782.000000  0    2810672.052  -2133469.828   5905475.796
10 0 59490  70902.000000  0    2027761.337  -1858337.416   6304676.107
10 0 59490  71022.000000  0    1214674.766  -1536795.843   6593029.376
10 0 59490  71142.000000  0     386379.068  -1174068.612   6765497.019
10 0 59490  71262.000000  0    -442002.552   -776356.208   6819067.994
10 0 59490  71382.000000  0   -1255465.880   -350729.409   6752807.170
10 0 59490  71502.000000  0   -2039396.180     94996.144   6567870.511
10 0 59490  71622.000000  0   -2779829.743    552402.973   6267486.394
10 0 59490  71742.000000  0   -3463702.968   1012629.742   5856903.336
10 0 59490  71862.000000  0   -4079085.554   1466541.651   5343304.425
10 0 59490  71982.000000  0   -4615394.192   1904910.746   4735688.038
10 0 59490  72102.000000  0   -5063581.761   2318603.351   4044715.142
10 0 59490  72222.000000  0   -5416297.394   2698770.458   3282525.399
10 0 59490  72342.000000  0   -5668014.217   3037036.333   2462525.348
10 0 59490  72462.000000  0   -5815122.913   3325681.916   1599151.945
10 0 59490  72582.000000  0   -5855988.105   3557818.939    707613.573
99
